{"type": "FeatureCollection", "name": "Pune Municipal Corporation - 41 Ward Boundaries (Voronoi)", "features": [{"type": "Feature", "properties": {"ward_id": 1, "ward_name": "Kalas-Dhanori-Lohegaon", "area_sq_km": 23.45}, "geometry": {"type": "Polygon", "coordinates": [[[73.89260665530374, 18.565945115715465], [73.87552413359147, 18.57848186834463], [73.85304761855757, 18.607748871304192], [73.85112151069353, 18.614652106632022], [73.85637621713845, 18.61498052578483], [73.8572805809148, 18.61499606294249], [73.85818264921593, 18.614929820785495], [73.85907504208355, 18.614782341251026], [73.89207504208355, 18.607782341251024], [73.89303516850741, 18.60752826070863], [73.89396535603908, 18.607180193433873], [73.89485642931179, 18.606741572761216], [73.92185642931179, 18.591741572761215], [73.92276963545868, 18.59116769898282], [73.92361572478751, 18.590498812275012], [73.92438485493928, 18.58974269364021], [73.92825240369619, 18.585506806906448], [73.89260665530374, 18.565945115715465]]]}}, {"type": "Feature", "properties": {"ward_id": 2, "ward_name": "Phulenagar-Nagpur Chawl", "area_sq_km": 19.28}, "geometry": {"type": "Polygon", "coordinates": [[[73.85504750415973, 18.534987271214643], [73.84815434805276, 18.542823359053234], [73.84231762199845, 18.55906006971339], [73.85304761855757, 18.607748871304192], [73.87552413359147, 18.57848186834463], [73.86930384615384, 18.53805], [73.864938541003, 18.534800059160826], [73.85504750415973, 18.534987271214643]]]}}, {"type": "Feature", "properties": {"ward_id": 3, "ward_name": "Viman Nagar-Lohegaon", "area_sq_km": 8.43}, "geometry": {"type": "Polygon", "coordinates": [[[73.92862940566148, 18.558497856387774], [73.89593400693751, 18.559876578020702], [73.89260665530374, 18.565945115715465], [73.92825240369619, 18.585506806906448], [73.93562726834828, 18.57742957419225], [73.92862940566148, 18.558497856387774]]]}}, {"type": "Feature", "properties": {"ward_id": 4, "ward_name": "Kharadi-Wagholi", "area_sq_km": 7.97}, "geometry": {"type": "Polygon", "coordinates": [[[73.94795002720348, 18.538803890097935], [73.93090156111928, 18.545454000981834], [73.92862940566148, 18.558497856387774], [73.93562726834828, 18.57742957419225], [73.94538485493928, 18.56674269364021], [73.94600606307546, 18.56599190737845], [73.94655124727315, 18.565184223189004], [73.94701523057468, 18.564327310675846], [73.95901523057468, 18.539327310675848], [73.95930562877422, 18.538640264715074], [73.94795002720348, 18.538803890097935]]]}}, {"type": "Feature", "properties": {"ward_id": 5, "ward_name": "Kalyani Nagar-Vadgaonsheri", "area_sq_km": 7.82}, "geometry": {"type": "Polygon", "coordinates": [[[73.89678775609755, 18.548967560975615], [73.89593400693751, 18.559876578020702], [73.92862940566148, 18.558497856387774], [73.93090156111928, 18.545454000981834], [73.91685052631578, 18.533128531855954], [73.89678775609755, 18.548967560975615]]]}}, {"type": "Feature", "properties": {"ward_id": 6, "ward_name": "Yerawada-Gandhinagar", "area_sq_km": 9.37}, "geometry": {"type": "Polygon", "coordinates": [[[73.87552413359147, 18.57848186834463], [73.89260665530374, 18.565945115715465], [73.89593400693751, 18.559876578020702], [73.89678775609755, 18.548967560975615], [73.88766179487179, 18.538050000000002], [73.86930384615384, 18.53805], [73.87552413359147, 18.57848186834463]]]}}, {"type": "Feature", "properties": {"ward_id": 7, "ward_name": "Gokhalenagar-Wakdewadi", "area_sq_km": 8.26}, "geometry": {"type": "Polygon", "coordinates": [[[73.84815434805276, 18.542823359053234], [73.82658252892561, 18.529076611570247], [73.81107484307573, 18.529791251471156], [73.80624331840345, 18.533485077673205], [73.80800683593749, 18.53945390625001], [73.84231762199845, 18.55906006971339], [73.84815434805276, 18.542823359053234]]]}}, {"type": "Feature", "properties": {"ward_id": 8, "ward_name": "Aundh-Bopodi", "area_sq_km": 36.63}, "geometry": {"type": "Polygon", "coordinates": [[[73.85304761855757, 18.607748871304192], [73.84231762199845, 18.55906006971339], [73.80800683593749, 18.53945390625001], [73.79393454053024, 18.601911765317862], [73.82145345765879, 18.61234997526318], [73.82240501934061, 18.612657436273533], [73.82338253087849, 18.61286832273697], [73.82437621713845, 18.61298052578483], [73.85112151069353, 18.614652106632022], [73.85304761855757, 18.607748871304192]]]}}, {"type": "Feature", "properties": {"ward_id": 9, "ward_name": "Sus-Baner-Pashan", "area_sq_km": 32.45}, "geometry": {"type": "Polygon", "coordinates": [[[73.79925154967611, 18.53057821540145], [73.74290712228543, 18.549876612550555], [73.74493816860006, 18.554228854653314], [73.74528387902288, 18.5549019623736], [73.74567949705663, 18.55554700196225], [73.76167949705662, 18.57954700196225], [73.76223884936442, 18.58030591316242], [73.76286718442553, 18.581008776068664], [73.76355891746462, 18.581649343486372], [73.76430790021169, 18.582221921916442], [73.7903079002117, 18.60022192191644], [73.79134637204028, 18.600851200303484], [73.7924534576588, 18.601349975263176], [73.79393454053024, 18.601911765317862], [73.80800683593749, 18.53945390625001], [73.80624331840345, 18.533485077673205], [73.79925154967611, 18.53057821540145]]]}}, {"type": "Feature", "properties": {"ward_id": 10, "ward_name": "Bavdhan-Bhusari Colony", "area_sq_km": 33.55}, "geometry": {"type": "Polygon", "coordinates": [[[73.78664381108686, 18.50157209304458], [73.72920852937003, 18.492441355951122], [73.73000407913538, 18.520285597738987], [73.730085134001, 18.521302087639867], [73.73026928578585, 18.522305038152087], [73.73055461963989, 18.52328402037949], [73.73093816860005, 18.524228854653312], [73.74290712228543, 18.549876612550555], [73.79925154967611, 18.53057821540145], [73.78716894631876, 18.50250939837127], [73.78664381108686, 18.50157209304458]]]}}, {"type": "Feature", "properties": {"ward_id": 11, "ward_name": "Rambaug Colony-Shivteerthnagar", "area_sq_km": 4.56}, "geometry": {"type": "Polygon", "coordinates": [[[73.78664381108686, 18.50157209304458], [73.78716894631876, 18.50250939837127], [73.82169515522106, 18.50661966133585], [73.82475145854147, 18.501894455544452], [73.79878621593292, 18.487925812368974], [73.78664381108686, 18.50157209304458]]]}}, {"type": "Feature", "properties": {"ward_id": 12, "ward_name": "Shivajinagar-Model Colony", "area_sq_km": 4.26}, "geometry": {"type": "Polygon", "coordinates": [[[73.85160674157304, 18.52728651685393], [73.84206721915285, 18.518977900552485], [73.82658252892561, 18.529076611570247], [73.84815434805276, 18.542823359053234], [73.85504750415973, 18.534987271214643], [73.85160674157304, 18.52728651685393]]]}}, {"type": "Feature", "properties": {"ward_id": 13, "ward_name": "Pune Station-Jay Jawan Nagar", "area_sq_km": 6.94}, "geometry": {"type": "Polygon", "coordinates": [[[73.864938541003, 18.534800059160826], [73.86930384615384, 18.53805], [73.88766179487179, 18.538050000000002], [73.89295161613549, 18.510904864567845], [73.88927528760583, 18.508081018016064], [73.8784861111111, 18.510084722222224], [73.87717857142857, 18.511], [73.864938541003, 18.534800059160826]]]}}, {"type": "Feature", "properties": {"ward_id": 14, "ward_name": "Koregaon Park-Ghorpadi-Mundhwa", "area_sq_km": 9.34}, "geometry": {"type": "Polygon", "coordinates": [[[73.88766179487179, 18.538050000000002], [73.89678775609755, 18.548967560975615], [73.91685052631578, 18.533128531855954], [73.91524249710618, 18.51831773650426], [73.91093060316047, 18.514190841308704], [73.89295161613549, 18.510904864567845], [73.88766179487179, 18.538050000000002]]]}}, {"type": "Feature", "properties": {"ward_id": 15, "ward_name": "Manjri Budruk-Keshavnagar-Sadesatranali", "area_sq_km": 10.19}, "geometry": {"type": "Polygon", "coordinates": [[[73.94795002720348, 18.538803890097935], [73.95930562877422, 18.538640264715074], [73.9593858776713, 18.538450405822434], [73.95967145667356, 18.537542228512855], [73.95986937926075, 18.536611009933978], [73.95997785157857, 18.535665190105238], [73.96197785157857, 18.505665190105237], [73.96199192922272, 18.504598315536466], [73.96189225679362, 18.503536013822064], [73.96167996898166, 18.50249037841216], [73.95912342528206, 18.49262942414229], [73.93280634357762, 18.51434101654846], [73.94795002720348, 18.538803890097935]]]}}, {"type": "Feature", "properties": {"ward_id": 16, "ward_name": "Hadapsar-Sasane Nagar", "area_sq_km": 15.21}, "geometry": {"type": "Polygon", "coordinates": [[[73.92089013035383, 18.486802141527], [73.91093060316047, 18.514190841308704], [73.91524249710618, 18.51831773650426], [73.93280634357762, 18.51434101654846], [73.95912342528206, 18.49262942414229], [73.95467996898165, 18.47549037841216], [73.95442801245984, 18.47466644618207], [73.95410606742612, 18.47386726046903], [73.9537165238279, 18.473098753999476], [73.95326227342807, 18.47236663175359], [73.95278446554582, 18.47166584685962], [73.92089013035383, 18.486802141527]]]}}, {"type": "Feature", "properties": {"ward_id": 17, "ward_name": "Wanowrie-Salunke Vihar", "area_sq_km": 6.78}, "geometry": {"type": "Polygon", "coordinates": [[[73.91093060316047, 18.514190841308704], [73.92089013035383, 18.486802141527], [73.9102485549133, 18.482842485549135], [73.88931162464986, 18.505682773109243], [73.88927528760583, 18.508081018016064], [73.89295161613549, 18.510904864567845], [73.91093060316047, 18.514190841308704]]]}}, {"type": "Feature", "properties": {"ward_id": 18, "ward_name": "Fatimanagar-Wanwadi", "area_sq_km": 4.39}, "geometry": {"type": "Polygon", "coordinates": [[[73.9102485549133, 18.482842485549135], [73.90126086956522, 18.474978260869566], [73.89765170278638, 18.47555572755418], [73.88618309859156, 18.48878873239437], [73.88931162464986, 18.505682773109243], [73.9102485549133, 18.482842485549135]]]}}, {"type": "Feature", "properties": {"ward_id": 19, "ward_name": "Keshav Nagar-Mundhwa", "area_sq_km": 7.71}, "geometry": {"type": "Polygon", "coordinates": [[[73.91685052631578, 18.533128531855954], [73.93090156111928, 18.545454000981834], [73.94795002720348, 18.538803890097935], [73.93280634357762, 18.51434101654846], [73.91524249710618, 18.51831773650426], [73.91685052631578, 18.533128531855954]]]}}, {"type": "Feature", "properties": {"ward_id": 20, "ward_name": "Shankar Maharaj Math-Bibwewadi", "area_sq_km": 3.95}, "geometry": {"type": "Polygon", "coordinates": [[[73.871515625, 18.46678125], [73.84792307692308, 18.461538461538456], [73.84685897435898, 18.468987179487176], [73.86468749999999, 18.483250000000005], [73.87068181818182, 18.478454545454543], [73.871515625, 18.46678125]]]}}, {"type": "Feature", "properties": {"ward_id": 21, "ward_name": "Mukundnagar-Salisbury Park", "area_sq_km": 6.67}, "geometry": {"type": "Polygon", "coordinates": [[[73.88927528760583, 18.508081018016064], [73.88931162464986, 18.505682773109243], [73.88618309859156, 18.48878873239437], [73.87068181818182, 18.478454545454543], [73.86468749999999, 18.483250000000005], [73.85989726027398, 18.489636986301367], [73.8784861111111, 18.510084722222224], [73.88927528760583, 18.508081018016064]]]}}, {"type": "Feature", "properties": {"ward_id": 22, "ward_name": "Kashewadi-Dias Plot", "area_sq_km": 3.37}, "geometry": {"type": "Polygon", "coordinates": [[[73.8784861111111, 18.510084722222224], [73.85989726027398, 18.489636986301367], [73.85633720930232, 18.490918604651164], [73.85347945205478, 18.49826712328767], [73.86023684210527, 18.50907894736842], [73.86600000000001, 18.511], [73.87717857142857, 18.511], [73.8784861111111, 18.510084722222224]]]}}, {"type": "Feature", "properties": {"ward_id": 23, "ward_name": "Rawiwar Peth-Nana Peth", "area_sq_km": 0.91}, "geometry": {"type": "Polygon", "coordinates": [[[73.86023684210527, 18.50907894736842], [73.85544736842105, 18.511815789473683], [73.85350000000001, 18.52349999999998], [73.86600000000001, 18.511], [73.86023684210527, 18.50907894736842]]]}}, {"type": "Feature", "properties": {"ward_id": 24, "ward_name": "Kasba Ganpati-Kamla Nehru Hospital-KEM", "area_sq_km": 4.29}, "geometry": {"type": "Polygon", "coordinates": [[[73.86600000000001, 18.511], [73.85350000000001, 18.52349999999998], [73.85160674157304, 18.52728651685393], [73.85504750415973, 18.534987271214643], [73.864938541003, 18.534800059160826], [73.87717857142857, 18.511], [73.86600000000001, 18.511]]]}}, {"type": "Feature", "properties": {"ward_id": 25, "ward_name": "Shaniwar Peth-Mahatma Phule Mandai", "area_sq_km": 2.31}, "geometry": {"type": "Polygon", "coordinates": [[[73.85544736842105, 18.511815789473683], [73.84242857142857, 18.507476190476194], [73.8400756097561, 18.508521951219514], [73.84206721915285, 18.518977900552485], [73.85160674157304, 18.52728651685393], [73.85350000000001, 18.52349999999998], [73.85544736842105, 18.511815789473683]]]}}, {"type": "Feature", "properties": {"ward_id": 26, "ward_name": "Ghorpade Peth-Guruwar Peth-Samta Bhoomi", "area_sq_km": 1.48}, "geometry": {"type": "Polygon", "coordinates": [[[73.85347945205478, 18.49826712328767], [73.84242857142857, 18.507476190476194], [73.85544736842105, 18.511815789473683], [73.86023684210527, 18.50907894736842], [73.85347945205478, 18.49826712328767]]]}}, {"type": "Feature", "properties": {"ward_id": 27, "ward_name": "Navi Peth-Parvati", "area_sq_km": 5.59}, "geometry": {"type": "Polygon", "coordinates": [[[73.85633720930232, 18.490918604651164], [73.84107446808511, 18.483287234042553], [73.83054458598725, 18.489805732484076], [73.8270102319236, 18.50080150068213], [73.8400756097561, 18.508521951219514], [73.84242857142857, 18.507476190476194], [73.85347945205478, 18.49826712328767], [73.85633720930232, 18.490918604651164]]]}}, {"type": "Feature", "properties": {"ward_id": 28, "ward_name": "Janta Vasahat-Hingane Khurd", "area_sq_km": 3.44}, "geometry": {"type": "Polygon", "coordinates": [[[73.82775, 18.466750000000005], [73.81779090909092, 18.473863636363635], [73.83054458598725, 18.489805732484076], [73.84107446808511, 18.483287234042553], [73.84146, 18.48045999999999], [73.82775, 18.466750000000005]]]}}, {"type": "Feature", "properties": {"ward_id": 29, "ward_name": "Deccan Gymkhana-Happy Colony", "area_sq_km": 6.58}, "geometry": {"type": "Polygon", "coordinates": [[[73.84206721915285, 18.518977900552485], [73.8400756097561, 18.508521951219514], [73.8270102319236, 18.50080150068213], [73.82475145854147, 18.501894455544452], [73.82169515522106, 18.50661966133585], [73.81107484307573, 18.529791251471156], [73.82658252892561, 18.529076611570247], [73.84206721915285, 18.518977900552485]]]}}, {"type": "Feature", "properties": {"ward_id": 30, "ward_name": "Karvenagar-Hingne Home Colony", "area_sq_km": 7.31}, "geometry": {"type": "Polygon", "coordinates": [[[73.82475145854147, 18.501894455544452], [73.8270102319236, 18.50080150068213], [73.83054458598725, 18.489805732484076], [73.81779090909092, 18.473863636363635], [73.80189864864865, 18.470807432432434], [73.79878621593292, 18.487925812368974], [73.82475145854147, 18.501894455544452]]]}}, {"type": "Feature", "properties": {"ward_id": 31, "ward_name": "Mayur Colony-Kothrud", "area_sq_km": 7.59}, "geometry": {"type": "Polygon", "coordinates": [[[73.82169515522106, 18.50661966133585], [73.78716894631876, 18.50250939837127], [73.79925154967611, 18.53057821540145], [73.80624331840345, 18.533485077673205], [73.81107484307573, 18.529791251471156], [73.82169515522106, 18.50661966133585]]]}}, {"type": "Feature", "properties": {"ward_id": 32, "ward_name": "Warje-Popular Nagar", "area_sq_km": 28.53}, "geometry": {"type": "Polygon", "coordinates": [[[73.78664381108686, 18.50157209304458], [73.79878621593292, 18.487925812368974], [73.80189864864865, 18.470807432432434], [73.79971230502599, 18.466653379549392], [73.74430316646462, 18.458258055524947], [73.73058821524624, 18.479592424086864], [73.73009045717335, 18.480459069850795], [73.72968169099798, 18.481371072149674], [73.72936599963197, 18.482319321558162], [73.72914653632054, 18.483294346601028], [73.72902549314662, 18.48428640835784], [73.7290040791354, 18.485285597738986], [73.72920852937003, 18.492441355951122], [73.78664381108686, 18.50157209304458]]]}}, {"type": "Feature", "properties": {"ward_id": 33, "ward_name": "Shivane-Khadakwasla-Dhayari", "area_sq_km": 20.29}, "geometry": {"type": "Polygon", "coordinates": [[[73.79971230502599, 18.466653379549392], [73.81555545475102, 18.42643615332433], [73.79335601012694, 18.43013606076168], [73.79230370074481, 18.430370359802858], [73.7673037007448, 18.437370359802856], [73.76639615150093, 18.437671962907675], [73.76552156341808, 18.438058881178414], [73.76468793556685, 18.43852757582163], [73.7639028923915, 18.439073760108954], [73.75090289239151, 18.449073760108956], [73.75024504538598, 18.449626358554788], [73.74963705857328, 18.45023338389247], [73.74908341967263, 18.450890355499688], [73.74858821524624, 18.451592424086865], [73.74430316646462, 18.458258055524947], [73.79971230502599, 18.466653379549392]]]}}, {"type": "Feature", "properties": {"ward_id": 34, "ward_name": "Vadgaon Budruk-Dhayari", "area_sq_km": 16.01}, "geometry": {"type": "Polygon", "coordinates": [[[73.83662264150944, 18.428817610062918], [73.83506704877696, 18.42394341950118], [73.8240049628098, 18.4250496280979], [73.82335601012694, 18.425136060761677], [73.81555545475102, 18.42643615332433], [73.79971230502599, 18.466653379549392], [73.80189864864865, 18.470807432432434], [73.81779090909092, 18.473863636363635], [73.82775, 18.466750000000005], [73.8394, 18.44733333333333], [73.83662264150944, 18.428817610062918]]]}}, {"type": "Feature", "properties": {"ward_id": 35, "ward_name": "Suncity-Manikbaug", "area_sq_km": 4.38}, "geometry": {"type": "Polygon", "coordinates": [[[73.84792307692308, 18.461538461538456], [73.8394, 18.44733333333333], [73.82775, 18.466750000000005], [73.84146, 18.48045999999999], [73.84685897435898, 18.468987179487176], [73.84792307692308, 18.461538461538456]]]}}, {"type": "Feature", "properties": {"ward_id": 36, "ward_name": "Sahakarnagar-Padmavati", "area_sq_km": 3.38}, "geometry": {"type": "Polygon", "coordinates": [[[73.86468749999999, 18.483250000000005], [73.84685897435898, 18.468987179487176], [73.84146, 18.48045999999999], [73.84107446808511, 18.483287234042553], [73.85633720930232, 18.490918604651164], [73.85989726027398, 18.489636986301367], [73.86468749999999, 18.483250000000005]]]}}, {"type": "Feature", "properties": {"ward_id": 37, "ward_name": "Dhankawadi-Katraj Dairy", "area_sq_km": 7.86}, "geometry": {"type": "Polygon", "coordinates": [[[73.84792307692308, 18.461538461538456], [73.871515625, 18.46678125], [73.87698876404495, 18.460213483146063], [73.83662264150944, 18.428817610062918], [73.8394, 18.44733333333333], [73.84792307692308, 18.461538461538456]]]}}, {"type": "Feature", "properties": {"ward_id": 38, "ward_name": "Balajinagar-Ambegaon-Katraj", "area_sq_km": 16.61}, "geometry": {"type": "Polygon", "coordinates": [[[73.83662264150944, 18.428817610062918], [73.87698876404495, 18.460213483146063], [73.87938336520077, 18.458809751434035], [73.89898163210641, 18.426530253001197], [73.88769629925521, 18.42337035980286], [73.88652566690479, 18.423117068223668], [73.88533314830234, 18.42300555093021], [73.85533314830234, 18.42200555093021], [73.8540049628098, 18.4220496280979], [73.83506704877696, 18.42394341950118], [73.83662264150944, 18.428817610062918]]]}}, {"type": "Feature", "properties": {"ward_id": 39, "ward_name": "Upper-Super Indiranagar", "area_sq_km": 5.71}, "geometry": {"type": "Polygon", "coordinates": [[[73.89765170278638, 18.47555572755418], [73.87938336520077, 18.458809751434035], [73.87698876404495, 18.460213483146063], [73.871515625, 18.46678125], [73.87068181818182, 18.478454545454543], [73.88618309859156, 18.48878873239437], [73.89765170278638, 18.47555572755418]]]}}, {"type": "Feature", "properties": {"ward_id": 40, "ward_name": "Kondhwa Budruk-Yeolewadi", "area_sq_km": 13.51}, "geometry": {"type": "Polygon", "coordinates": [[[73.87938336520077, 18.458809751434035], [73.89765170278638, 18.47555572755418], [73.90126086956522, 18.474978260869566], [73.9208236601696, 18.43585267966081], [73.91624695047554, 18.43219131190557], [73.91543253840744, 18.431604315009984], [73.91456337545866, 18.431101932545587], [73.91364822133474, 18.430689227685487], [73.9126962992552, 18.43037035980286], [73.89898163210641, 18.426530253001197], [73.87938336520077, 18.458809751434035]]]}}, {"type": "Feature", "properties": {"ward_id": 41, "ward_name": "Mohammadwadi-Undri", "area_sq_km": 17.62}, "geometry": {"type": "Polygon", "coordinates": [[[73.90126086956522, 18.474978260869566], [73.9102485549133, 18.482842485549135], [73.92089013035383, 18.486802141527], [73.95278446554582, 18.47166584685962], [73.93826227342808, 18.45036663175359], [73.93766366154621, 18.44957595986117], [73.93698967768894, 18.448848468289597], [73.93624695047555, 18.448191311905568], [73.9208236601696, 18.43585267966081], [73.90126086956522, 18.474978260869566]]]}}]}